 PEER Ground Motion Database, Time Series Search Report -- NGA-West2 -- 2020-02-03,,,,,,,,,,,,,,,,,,,,,,,,,,,,,,,,
,,,,,,,,,,,,,,,,,,,,,,,,,,,,,,,,,
,,,,,,,,,,,,,,,,,,,,,,,,,,,,,,,,,
,,,,,,,,,,,,,,,,,,,,,,,,,,,,,,,,,
 -- Summary of Metadata of Selected Records --,,,,,,,,,,,,,,,,,,,,,,,,,,,,,,,,,
Result ID, Spectral Ordinate, Record Sequence Number, Mean Squared Error, Scale Factor, Tp-Pulse Period (sec), 5-75% Duration (sec), 5-95% Duration (sec), Arias Intensity (m/sec), Earthquake Name, Year, Station Name, Magnitude, Mechanism, Rjb (km), Rrup (km), Vs30 (m/sec), Lowest Useable Frequency (Hz), Initial-search Scale Factor, Horizontal-1 Acc. Filename, Horizontal-2 Acc. Filename, Vertical Acc. Filename,,,,,,,,,,,,
1, SRSS,161,0.001,0.935,4.396,5.3,14.9,0.4," ""Imperial Valley-06""",1979," ""Brawley Airport""",6.53, strike slip,8.54,10.42,208.71,0.05375,0.9354, RSN161_IMPVALL.H_H-BRA225.AT2, RSN161_IMPVALL.H_H-BRA315.AT2 , RSN161_IMPVALL.H_H-BRA-UP.AT2  ,,,,,,,,,,,,
2, SRSS,548,0.0013,1.1203, -,5.7,16.6,0.4," ""Chalfant Valley-02""",1986," ""Benton""",6.19, strike slip,21.55,21.92,370.94,0.125,1.1207, RSN548_CHALFANT.A_A-BEN270.AT2, RSN548_CHALFANT.A_A-BEN360.AT2 , RSN548_CHALFANT.A_A-BEN-UP.AT2  ,,,,,,,,,,,,
3, SRSS,806,0.0013,0.8428, -,9.9,25.3,0.8," ""Loma Prieta""",1989," ""Sunnyvale - Colton Ave.""",6.93, Reverse Oblique,23.92,24.23,267.71,0.1,0.8431, RSN806_LOMAP_SVL270.AT2, RSN806_LOMAP_SVL360.AT2 , RSN806_LOMAP_SVL-UP.AT2  ,,,,,,,,,,,,
4, SRSS,2507,0.0012,0.9598, -,9.3,18.6,0.4," ""Chi-Chi_ Taiwan-03""",1999," ""CHY101""",6.2, Reverse,24.4,25.3,258.89,0.06,0.9602, RSN2507_CHICHI.03_CHY101N.AT2, RSN2507_CHICHI.03_CHY101E.AT2 , RSN2507_CHICHI.03_CHY101V.AT2  ,,,,,,,,,,,,
5, SRSS,4879,0.0007,0.8489, -,6.6,18.2,0.7," ""Chuetsu-oki_ Japan""",2007," ""Yan Sakuramachi City watershed""",6.8, Reverse,12.98,18.97,265.82,0.1,0.8493, RSN4879_CHUETSU_65084NS.AT2, RSN4879_CHUETSU_65084EW.AT2 , RSN4879_CHUETSU_65084UD.AT2  ,,,,,,,,,,,,
6, SRSS,1410,0.0044,1.5761, -,13.9,31,0.6," ""Chi-Chi_ Taiwan""",1999," ""TAP003""",7.62, Reverse Oblique,101.27,102.39,212.39,0.05,1.5814, RSN1410_CHICHI_TAP003-N.AT2, RSN1410_CHICHI_TAP003-E.AT2 , RSN1410_CHICHI_TAP003-V.AT2  ,,,,,,,,,,,,
7, SRSS,1640,0.0038,1.1787, -,17.6,25.9,0.4," ""Manjil_ Iran""",1990," ""Tonekabun""",7.37, strike slip,93.3,93.62,289.69,0.25,1.1826, RSN1640_MANJIL_189042.AT2, RSN1640_MANJIL_189132.AT2 , RSN1640_MANJIL_189-UP.AT2  ,,,,,,,,,,,,
8, SRSS,1810,0.0098,1.3133, -,8,31,0.3," ""Hector Mine""",1999," ""Mecca - CVWD Yard""",7.13, strike slip,91.96,91.96,318,0.039,1.3177, RSN1810_HECTOR_MCY090.AT2, RSN1810_HECTOR_MCY180.AT2 , RSN1810_HECTOR_MCY-UP.AT2  ,,,,,,,,,,,,
9, SRSS,1825,0.0108,1.9279, -,23.9,34.7,0.2," ""Hector Mine""",1999," ""San Bernardino - E & Hospitality""",7.13, strike slip,105.2,105.2,296.97,0.091,1.9343, RSN1825_HECTOR_HOS360.AT2, RSN1825_HECTOR_HOS090.AT2 , RSN1825_HECTOR_HOS-UP.AT2  ,,,,,,,,,,,,
10, SRSS,5790,0.0116,1.0442, -,14.5,25.8,0.4," ""Iwate_ Japan""",2008," ""Shinminami Okawara Town""",6.9, Reverse,87.84,87.85,327.45,0.075,1.0477, RSN5790_IWATE_54062NS.AT2, RSN5790_IWATE_54062EW.AT2 , RSN5790_IWATE_54062UD.AT2  ,,,,,,,,,,,,
11, SRSS,6901,0.009,1.1465, -,14,29.7,0.3," ""Darfield_ New Zealand""",2010," ""FDCS""",7, strike slip,90.17,91.59,389.54,0.0375,1.1503, RSN6901_DARFIELD_FDCSN09W.AT2, RSN6901_DARFIELD_FDCSS81W.AT2 , RSN6901_DARFIELD_FDCSUP.AT2  ,,,,,,,,,,,,
,,,,,,,,,,,,,,,,,,,,,,,,,,,,,,,,,
 These records were obtained from the NGA-West2 On-Line Ground-Motion Database Tool,,,,,,,,,,,,,,,,,,,,,,,,,,,,,,,,,
 These records are UNSCALED, AS RECORDED,,,,,,,,,,,,,,,,,,,,,,,,,,,,,,,,
 Filename Extension: ,,,,,,,,,,,,,,,,,,,,,,,,,,,,,,,,,
   ,AT2 = Acceleration,,,,,,,,,,,,,,,,,,,,,,,,,,,,,,,,
   ,VT2 = Velocity,,,,,,,,,,,,,,,,,,,,,,,,,,,,,,,,
   ,DT2 = Displacement,,,,,,,,,,,,,,,,,,,,,,,,,,,,,,,,
 The users of the NGA-West2 databases, flatfiles, models and reports are requested to acknowledge the Pacific Earthquake Engineering Research Center (PEER) in their work and publications.,,,,,,,,,,,,,,,,,,,,,,,,,,,,,,,
,,,,,,,,,,,,,,,,,,,,,,,,,,,,,,,,,
 -- Scaled Spectra used in Search & Scaling --,,,,,,,,,,,,,,,,,,,,,,,,,,,,,,,,,
Period (sec),RSN-161 SRSS pSa (g),RSN-548 SRSS pSa (g),RSN-806 SRSS pSa (g),RSN-2507 SRSS pSa (g),RSN-4879 SRSS pSa (g),RSN-1410 SRSS pSa (g),RSN-1640 SRSS pSa (g),RSN-1810 SRSS pSa (g),RSN-1825 SRSS pSa (g),RSN-5790 SRSS pSa (g),RSN-6901 SRSS pSa (g),,,,,,,,,,,,,,,,,,,,,,
0.01,0.25723212,0.30877974,0.24756607,0.18248546,0.25745142,0.26568026,0.19291993,0.17207212,0.18089434,0.17401745,0.18538504,,,,,,,,,,,,,,,,,,,,,,
0.02,0.26046333,0.31496658,0.25012669,0.1843184,0.25715519,0.26622506,0.19241393,0.17222336,0.17989497,0.17359097,0.18660191,,,,,,,,,,,,,,,,,,,,,,
0.022,0.25837809,0.31363102,0.25013346,0.18491871,0.25801841,0.26621625,0.19246188,0.17224715,0.18010871,0.17363709,0.18641668,,,,,,,,,,,,,,,,,,,,,,
0.025,0.26495529,0.32342595,0.24950162,0.1854998,0.29079489,0.26719488,0.19255756,0.172255,0.18015546,0.1737518,0.18682905,,,,,,,,,,,,,,,,,,,,,,
0.029,0.26763256,0.34905213,0.25372568,0.18671153,0.3269699,0.26732819,0.19270346,0.17236202,0.18000503,0.17384676,0.18838737,,,,,,,,,,,,,,,,,,,,,,
0.03,0.27064312,0.35495339,0.25369351,0.1866021,0.34212461,0.26752816,0.19276045,0.17245903,0.18022415,0.17386089,0.18862923,,,,,,,,,,,,,,,,,,,,,,
0.032,0.27896782,0.35728846,0.25396481,0.18711708,0.3545153,0.26747848,0.19290281,0.17247242,0.18073173,0.17381769,0.18827093,,,,,,,,,,,,,,,,,,,,,,
0.035,0.29331086,0.35903916,0.26147232,0.1891851,0.38754985,0.26803312,0.19325008,0.17245001,0.18098164,0.17420101,0.18776515,,,,,,,,,,,,,,,,,,,,,,
0.036,0.29669296,0.36698521,0.26059407,0.18884092,0.40994939,0.26809939,0.19346781,0.17260428,0.18103604,0.17439374,0.18848255,,,,,,,,,,,,,,,,,,,,,,
0.04,0.30198243,0.39137307,0.25746364,0.18784472,0.49463704,0.26730652,0.19483573,0.17248822,0.18190896,0.1741494,0.18677713,,,,,,,,,,,,,,,,,,,,,,
0.042,0.30536419,0.37487517,0.2552412,0.18911861,0.51371717,0.2676824,0.19672987,0.17250334,0.18245142,0.17386146,0.18670011,,,,,,,,,,,,,,,,,,,,,,
0.044,0.31918287,0.3550213,0.26863818,0.19098988,0.49177613,0.26721604,0.19762905,0.17302865,0.18351063,0.17379315,0.19080456,,,,,,,,,,,,,,,,,,,,,,
0.045,0.3188901,0.36214413,0.27449818,0.19202439,0.46437804,0.26660837,0.19779759,0.17326868,0.18337793,0.1742362,0.19394175,,,,,,,,,,,,,,,,,,,,,,
0.046,0.3205039,0.37335029,0.27912373,0.19228756,0.46075765,0.2664301,0.19775063,0.17323492,0.1826346,0.17463952,0.19685971,,,,,,,,,,,,,,,,,,,,,,
0.048,0.34001043,0.39812305,0.28450045,0.19212898,0.45410166,0.26685691,0.19668595,0.17243478,0.18082218,0.17517034,0.19945201,,,,,,,,,,,,,,,,,,,,,,
0.05,0.3455408,0.41461959,0.28872696,0.19545223,0.44514185,0.26778338,0.19448818,0.17316675,0.18388313,0.17560407,0.19939663,,,,,,,,,,,,,,,,,,,,,,
0.055,0.36732938,0.40194554,0.28675893,0.20064767,0.47470148,0.26946921,0.19507792,0.17435293,0.18739862,0.17724038,0.19621399,,,,,,,,,,,,,,,,,,,,,,
0.06,0.40145055,0.44262418,0.28726555,0.21003614,0.47270795,0.26972701,0.19542446,0.17570382,0.18722021,0.17684842,0.22291092,,,,,,,,,,,,,,,,,,,,,,
0.065,0.42374216,0.4558696,0.27926872,0.22798247,0.468491,0.26818764,0.19760784,0.1824653,0.18699785,0.17627731,0.2409461,,,,,,,,,,,,,,,,,,,,,,
0.067,0.43838079,0.4697889,0.27714983,0.23815571,0.4865734,0.26904402,0.19734263,0.18435987,0.19936962,0.17626569,0.23905321,,,,,,,,,,,,,,,,,,,,,,
0.07,0.43256441,0.53037376,0.28883797,0.2737279,0.45198148,0.26839847,0.19537568,0.18026908,0.21141713,0.17653845,0.23065535,,,,,,,,,,,,,,,,,,,,,,
0.075,0.43936156,0.59243743,0.3117069,0.28457419,0.39495165,0.26907579,0.19359552,0.1809154,0.21837039,0.17564119,0.25225918,,,,,,,,,,,,,,,,,,,,,,
0.08,0.39927241,0.62774261,0.28466911,0.24517967,0.36183935,0.26809551,0.19753635,0.19329711,0.22325034,0.17946373,0.25453995,,,,,,,,,,,,,,,,,,,,,,
0.085,0.38978034,0.70237265,0.29391104,0.2484328,0.39498527,0.26995675,0.19783067,0.20337612,0.23082127,0.18015473,0.25666899,,,,,,,,,,,,,,,,,,,,,,
0.09,0.43398521,0.72704941,0.3486657,0.25491046,0.41088879,0.27002025,0.20380858,0.20355499,0.23777965,0.18257327,0.24707206,,,,,,,,,,,,,,,,,,,,,,
0.095,0.40077284,0.65400495,0.36605439,0.28332508,0.39207977,0.27058171,0.20584451,0.21967244,0.22990562,0.18486476,0.25626547,,,,,,,,,,,,,,,,,,,,,,
0.1,0.42758826,0.54444641,0.38257393,0.30794248,0.3938844,0.27091468,0.20454997,0.22145149,0.2342233,0.18794915,0.26135407,,,,,,,,,,,,,,,,,,,,,,
0.11,0.44407169,0.67052852,0.41480706,0.32041333,0.46026835,0.27125803,0.22079707,0.22532007,0.24348243,0.19525552,0.27605949,,,,,,,,,,,,,,,,,,,,,,
0.12,0.44461176,0.79718951,0.49381071,0.32905767,0.4790851,0.27028767,0.21674665,0.22394509,0.27315063,0.2059679,0.30668265,,,,,,,,,,,,,,,,,,,,,,
0.13,0.53811133,0.78262968,0.5005176,0.32174176,0.47822018,0.27829781,0.23313017,0.24004763,0.28056657,0.21297377,0.31768188,,,,,,,,,,,,,,,,,,,,,,
0.133,0.54773001,0.78132823,0.45265761,0.32532193,0.49484291,0.27737277,0.24275488,0.24509059,0.28683924,0.21546332,0.31199544,,,,,,,,,,,,,,,,,,,,,,
0.14,0.57466218,0.848035,0.44823337,0.31786717,0.486275,0.27077734,0.24519025,0.25156923,0.26988292,0.21335622,0.30230288,,,,,,,,,,,,,,,,,,,,,,
0.15,0.54095792,0.95088719,0.49648134,0.30597188,0.4605692,0.27266534,0.21498882,0.28369893,0.26623431,0.21559798,0.31637594,,,,,,,,,,,,,,,,,,,,,,
0.16,0.61470823,0.91526811,0.49719692,0.35565922,0.44696912,0.28118253,0.22137648,0.30343682,0.26600526,0.21461377,0.33781519,,,,,,,,,,,,,,,,,,,,,,
0.17,0.66485128,0.98360809,0.61378934,0.39907527,0.50280853,0.29039838,0.23299376,0.36728983,0.29380165,0.23245865,0.46958312,,,,,,,,,,,,,,,,,,,,,,
0.18,0.67793368,1.04252003,0.72148436,0.36195772,0.54008989,0.29814328,0.23246986,0.38237024,0.28432233,0.23697426,0.54293848,,,,,,,,,,,,,,,,,,,,,,
0.19,0.65306488,0.98942601,0.70509367,0.31454059,0.566475,0.29710681,0.2596139,0.43212476,0.27488985,0.22681932,0.46285812,,,,,,,,,,,,,,,,,,,,,,
0.2,0.62674391,0.86427006,0.7586797,0.3237122,0.58232452,0.31312308,0.26205161,0.43186975,0.27032388,0.22231769,0.4138451,,,,,,,,,,,,,,,,,,,,,,
0.22,0.57904351,0.65022429,0.77036391,0.44634011,0.59004061,0.33388239,0.29656496,0.45315323,0.28063305,0.24925616,0.42729301,,,,,,,,,,,,,,,,,,,,,,
0.24,0.61115527,0.70423371,0.68714167,0.48306878,0.59628646,0.38934464,0.33991246,0.49020529,0.32593445,0.27141697,0.47514537,,,,,,,,,,,,,,,,,,,,,,
0.25,0.66467349,0.62237747,0.62848149,0.5276109,0.564771,0.44861275,0.38146468,0.43916444,0.33473979,0.27774306,0.40284288,,,,,,,,,,,,,,,,,,,,,,
0.26,0.74193249,0.54241882,0.64901794,0.57520854,0.50732594,0.48929098,0.42967991,0.41925406,0.32575578,0.27993781,0.38975598,,,,,,,,,,,,,,,,,,,,,,
0.28,0.84596919,0.47668031,0.67895527,0.55569659,0.41837432,0.53439133,0.42191155,0.39724988,0.30003955,0.313356,0.36689363,,,,,,,,,,,,,,,,,,,,,,
0.29,0.83390163,0.45670951,0.66299339,0.51681164,0.41337498,0.56866941,0.38375448,0.39873452,0.30172331,0.33515468,0.40282844,,,,,,,,,,,,,,,,,,,,,,
0.3,0.78303812,0.48098178,0.63392129,0.49213494,0.42343708,0.58511828,0.3696886,0.39389581,0.29905249,0.35151345,0.44057467,,,,,,,,,,,,,,,,,,,,,,
0.32,0.67898621,0.54386719,0.54199122,0.47910997,0.40489016,0.61234963,0.3942953,0.38960996,0.34617063,0.34758519,0.5071156,,,,,,,,,,,,,,,,,,,,,,
0.34,0.61162023,0.55235654,0.48554521,0.42314859,0.38205501,0.56946326,0.4073649,0.41256329,0.36262295,0.36537236,0.49325088,,,,,,,,,,,,,,,,,,,,,,
0.35,0.55957393,0.54393629,0.49436155,0.41944394,0.38341499,0.58026633,0.41706591,0.3747074,0.38684217,0.36917591,0.46581544,,,,,,,,,,,,,,,,,,,,,,
0.36,0.49560193,0.5323753,0.52209108,0.43304569,0.39272667,0.56750562,0.45428544,0.37208443,0.40020307,0.38121245,0.47933818,,,,,,,,,,,,,,,,,,,,,,
0.38,0.44664118,0.49150873,0.51447367,0.46267814,0.44084756,0.54109041,0.51298278,0.38369174,0.41790067,0.38044553,0.44734906,,,,,,,,,,,,,,,,,,,,,,
0.4,0.47579086,0.48664372,0.46405264,0.47535219,0.48789926,0.47683653,0.49969077,0.42821469,0.3870987,0.37821322,0.4452758,,,,,,,,,,,,,,,,,,,,,,
0.42,0.48859557,0.46692507,0.47338234,0.46026585,0.48221941,0.46662673,0.45852514,0.4590943,0.46487667,0.42692225,0.46703585,,,,,,,,,,,,,,,,,,,,,,
0.44,0.48786505,0.45209279,0.47448371,0.46286935,0.48555543,0.46110902,0.45118754,0.46308408,0.50103844,0.49025381,0.49998504,,,,,,,,,,,,,,,,,,,,,,
0.45,0.48363047,0.46435336,0.4604295,0.46736188,0.47728653,0.43598744,0.4555397,0.44862375,0.48752461,0.52601146,0.53440546,,,,,,,,,,,,,,,,,,,,,,
0.46,0.47741963,0.46781664,0.45623165,0.47915109,0.47301209,0.43038644,0.4481712,0.43868232,0.4826711,0.54872457,0.53838495,,,,,,,,,,,,,,,,,,,,,,
0.48,0.46182503,0.48031096,0.49464459,0.496056,0.46829832,0.44690888,0.44243929,0.44367503,0.45694193,0.51319007,0.48920108,,,,,,,,,,,,,,,,,,,,,,
0.5,0.44567107,0.51045268,0.50484615,0.49181954,0.45667243,0.5330867,0.45592222,0.44661365,0.42369605,0.45678082,0.44777697,,,,,,,,,,,,,,,,,,,,,,
0.55,0.47715654,0.45402493,0.47523773,0.47752753,0.44909717,0.50868085,0.49215056,0.56540366,0.47619653,0.4536042,0.43384575,,,,,,,,,,,,,,,,,,,,,,
0.6,0.4504443,0.46634281,0.44582124,0.43845981,0.4676709,0.48355524,0.53845505,0.5620466,0.57677129,0.46437022,0.39682498,,,,,,,,,,,,,,,,,,,,,,
0.65,0.3930369,0.44787831,0.3891444,0.4207537,0.49220466,0.57884267,0.58639294,0.48192905,0.47515431,0.49114437,0.3581799,,,,,,,,,,,,,,,,,,,,,,
0.667,0.3766664,0.43422423,0.3845215,0.40661547,0.50615936,0.57253377,0.62825423,0.47590395,0.41590656,0.56496104,0.30042428,,,,,,,,,,,,,,,,,,,,,,
0.7,0.35335941,0.41915764,0.38208171,0.35244579,0.52874601,0.557587,0.67640962,0.46778643,0.38139233,0.6833957,0.26125618,,,,,,,,,,,,,,,,,,,,,,
0.75,0.33992201,0.42602352,0.39509325,0.28304038,0.58661459,0.60496592,0.69929919,0.45100116,0.336947,0.71030686,0.28021375,,,,,,,,,,,,,,,,,,,,,,
0.8,0.33369321,0.42450275,0.36900671,0.25092974,0.63410411,0.52055291,0.60227846,0.50767157,0.31714477,0.66973499,0.26752754,,,,,,,,,,,,,,,,,,,,,,
0.85,0.32964472,0.40095614,0.31588149,0.23665366,0.65860665,0.55509663,0.46296184,0.51917797,0.29908546,0.59488931,0.23840314,,,,,,,,,,,,,,,,,,,,,,
0.9,0.33571068,0.43288357,0.31194039,0.2418214,0.65061871,0.60731603,0.42470493,0.49112426,0.32908542,0.53692675,0.23338075,,,,,,,,,,,,,,,,,,,,,,
0.95,0.3386254,0.42502557,0.33029117,0.2288627,0.62331449,0.68539817,0.37278461,0.43675236,0.33923571,0.45535,0.29946699,,,,,,,,,,,,,,,,,,,,,,
1,0.33667564,0.39266235,0.32733048,0.22885931,0.60016004,0.79816168,0.32635545,0.37019833,0.31014773,0.39283481,0.34038484,,,,,,,,,,,,,,,,,,,,,,
1.1,0.32045243,0.33946488,0.33354816,0.24676921,0.56897675,0.82095107,0.30683194,0.32228231,0.26661277,0.29212105,0.27963227,,,,,,,,,,,,,,,,,,,,,,
1.2,0.29989956,0.29348315,0.36388476,0.2287896,0.56066076,0.72817916,0.32077801,0.26004801,0.23176128,0.22580068,0.25917373,,,,,,,,,,,,,,,,,,,,,,
1.3,0.28244064,0.22258562,0.3629468,0.22664878,0.51855708,0.71869537,0.36325966,0.30278562,0.23235002,0.16983099,0.24048802,,,,,,,,,,,,,,,,,,,,,,
1.4,0.27199197,0.20863488,0.31171116,0.24008114,0.40262719,0.74355435,0.33465386,0.24858189,0.21727255,0.12751727,0.18098522,,,,,,,,,,,,,,,,,,,,,,
1.5,0.26586341,0.19438744,0.25118569,0.26576022,0.32078798,0.75937787,0.30357331,0.19785565,0.21978134,0.11152626,0.14082704,,,,,,,,,,,,,,,,,,,,,,
1.6,0.25641731,0.18110221,0.20921565,0.29616067,0.27738502,0.72425989,0.27697758,0.20161526,0.23179938,0.0989212,0.1193874,,,,,,,,,,,,,,,,,,,,,,
1.7,0.24142907,0.16844097,0.20507545,0.33011803,0.24363009,0.66881973,0.26997133,0.21217617,0.24888279,0.08397077,0.12194453,,,,,,,,,,,,,,,,,,,,,,
1.8,0.22582663,0.16001845,0.2249807,0.33970227,0.22130932,0.60703861,0.26030956,0.22405505,0.30480425,0.06907556,0.12026642,,,,,,,,,,,,,,,,,,,,,,
1.9,0.21181412,0.15189759,0.2213315,0.35346167,0.22144108,0.60405603,0.23136629,0.20333456,0.3151968,0.06225927,0.13467723,,,,,,,,,,,,,,,,,,,,,,
2,0.20150696,0.1424106,0.19843332,0.36429302,0.22038402,0.53489782,0.19507722,0.17797239,0.33121655,0.05764223,0.14231807,,,,,,,,,,,,,,,,,,,,,,
2.2,0.18659453,0.11489295,0.20454575,0.30924962,0.18162949,0.39823383,0.17459341,0.15427822,0.27239871,0.04072616,0.12087051,,,,,,,,,,,,,,,,,,,,,,
2.4,0.18552177,0.0866926,0.26459835,0.26547397,0.13610343,0.44143473,0.14040742,0.15542525,0.2409698,0.03043481,0.10231455,,,,,,,,,,,,,,,,,,,,,,
2.5,0.17756674,0.0770434,0.29120464,0.2554954,0.12170323,0.42254855,0.11828645,0.15319018,0.2055677,0.02688947,0.07912682,,,,,,,,,,,,,,,,,,,,,,
2.6,0.17400109,0.07184989,0.31772769,0.24878798,0.10739355,0.40221118,0.10700508,0.14602037,0.18186401,0.02360923,0.07878311,,,,,,,,,,,,,,,,,,,,,,
2.8,0.18010486,0.05927579,0.36798519,0.25484681,0.08786422,0.41986323,0.10779049,0.1231295,0.1621159,0.01949427,0.06804811,,,,,,,,,,,,,,,,,,,,,,
3,0.17195204,0.04748173,0.38594393,0.23118863,0.0751932,0.35824571,0.08626329,0.10669655,0.18995555,0.0173787,0.07082034,,,,,,,,,,,,,,,,,,,,,,
3.2,0.14990904,0.04118156,0.35086643,0.20177954,0.06475736,0.31798967,0.07086347,0.10011723,0.21214753,0.01660988,0.06272999,,,,,,,,,,,,,,,,,,,,,,
3.4,0.13884614,0.03502787,0.29201126,0.17308372,0.05328341,0.28257827,0.06944098,0.09302064,0.22926694,0.01580168,0.05142259,,,,,,,,,,,,,,,,,,,,,,
3.5,0.13340466,0.03248966,0.25398544,0.1636746,0.05145031,0.26511205,0.07079568,0.08979637,0.22830819,0.01494596,0.04547019,,,,,,,,,,,,,,,,,,,,,,
3.6,0.12820944,0.03032609,0.21569398,0.15378542,0.04867198,0.24687571,0.07048797,0.09056542,0.22258846,0.01366516,0.04066375,,,,,,,,,,,,,,,,,,,,,,
3.8,0.11943957,0.02559629,0.15341926,0.13454505,0.04455775,0.22446396,0.06759835,0.07894992,0.23259463,0.01298494,0.03031151,,,,,,,,,,,,,,,,,,,,,,
4,0.11194013,0.0217765,0.11908917,0.12436491,0.04319238,0.20714513,0.06475379,0.0789535,0.2504465,0.01316004,0.02408974,,,,,,,,,,,,,,,,,,,,,,
4.2,0.10916096,0.01976933,0.09620755,0.11091474,0.0402812,0.18767117,0.06203659,0.07801439,0.25525897,0.01324926,0.02036116,,,,,,,,,,,,,,,,,,,,,,
4.4,0.1103429,0.01841309,0.08523524,0.0974289,0.03609848,0.16955572,0.05692051,0.07354038,0.2402705,0.01138454,0.01689124,,,,,,,,,,,,,,,,,,,,,,
4.6,0.11138667,0.01785157,0.084918,0.08621008,0.03252842,0.1435349,0.04992945,0.07125669,0.21891104,0.00953846,0.01400757,,,,,,,,,,,,,,,,,,,,,,
4.8,0.10626249,0.01633249,0.08418434,0.07768152,0.03027704,0.11368064,0.03894129,0.06793982,0.2048434,0.00873287,0.01230169,,,,,,,,,,,,,,,,,,,,,,
5,0.09570123,0.01490708,0.08917541,0.07376594,0.02902884,0.09784506,0.02935315,0.0692161,0.1949531,0.00844396,0.0106182,,,,,,,,,,,,,,,,,,,,,,
5.5,0.07276021,0.01163172,0.0824724,0.0731014,0.02640217,0.07577617,0.0187297,0.06061266,0.16457538,0.00782783,0.00867217,,,,,,,,,,,,,,,,,,,,,,
6,0.05287317,0.00911319,0.07114373,0.06539468,0.02486862,0.06577319,0.01408712,0.05750808,0.12814727,0.00835396,0.00747906,,,,,,,,,,,,,,,,,,,,,,
6.5,0.04387871,0.00716253,0.0556482,0.05745438,0.02100175,0.05414041,0.01066018,0.05644821,0.10757089,0.00767717,0.00660104,,,,,,,,,,,,,,,,,,,,,,
7,0.03793847,0.00585842,0.05002362,0.04793766,0.0161266,0.04793963,0.0084093,0.05356032,0.08211415,0.00645221,0.00557662,,,,,,,,,,,,,,,,,,,,,,
7.5,0.0326178,0.0047066,0.04519717,0.04226115,0.01164624,0.048612,0.00697514,0.04980012,0.06856536,0.00567018,0.00482534,,,,,,,,,,,,,,,,,,,,,,
8,0.02790893,0.00383255,0.03783651,0.03549197,0.00898332,0.04631022,0.00582736,0.04800381,0.05584198,0.00487873,0.00434725,,,,,,,,,,,,,,,,,,,,,,
8.5,0.02370985,0.00331165,0.03111679,0.02866381,0.0074596,0.04150052,0.00494841,0.04349047,0.04795856,0.00429386,0.00404671,,,,,,,,,,,,,,,,,,,,,,
9,0.02344791,0.00288987,0.02647374,0.02305412,0.00655846,0.03571912,0.00433027,0.03913849,0.04068805,0.00378745,0.00391526,,,,,,,,,,,,,,,,,,,,,,
9.5,0.02247573,0.00250258,0.02228268,0.01848608,0.0061918,0.03271241,0.00385094,0.03464272,0.03392267,0.00333824,0.00370699,,,,,,,,,,,,,,,,,,,,,,
10,0.01971487,0.00223666,0.02011373,0.01479606,0.00581521,0.02994851,0.00344459,0.03148607,0.02861675,0.00286681,0.0034295,,,,,,,,,,,,,,,,,,,,,,
